OBJECT_NAME,OBJECT_ID,EPOCH,MEAN_MOTION,ECCENTRICITY,INCLINATION,RA_OF_ASC_NODE,ARG_OF_PERICENTER,MEAN_ANOMALY,EPHEMERIS_TYPE,CLASSIFICATION_TYPE,NORAD_CAT_ID,ELEMENT_SET_NO,REV_AT_EPOCH,BSTAR,MEAN_MOTION_DOT,MEAN_MOTION_DDOT
BRO-8,2023-001C,2026-05-13T08:00:28.332864,15.46936333,.00050212,97.3243,198.0700,232.5323,127.5471,0,U,55011,999,18681,.42080153E-3,.21143E-3,0
CONNECTA T1.2,2023-001D,2026-05-12T23:19:31.250208,15.48169758,.0005967,97.3301,203.1042,206.5063,153.5883,0,U,55012,999,18709,.49489898E-3,.25989E-3,0
BIRKELAND,2023-001G,2026-05-13T04:23:12.168672,15.39448528,.0005793,97.3364,201.0774,218.0785,142.0052,0,U,55015,999,18696,.20233819E-3,.7848E-4,0
LYNK TOWER 4,2023-001AB,2026-05-13T03:05:16.506528,15.32845285,.00068929,97.3224,192.3938,236.4037,123.6547,0,U,55034,999,18645,.13332077E-3,.4153E-4,0
SKYKRAFT-1,2023-001AJ,2026-05-13T06:35:12.839424,15.63446083,.0004947,97.3199,209.1914,181.5902,178.5342,0,U,55041,999,18759,.30078635E-3,.27691E-3,0
CONTINUUM-1,2023-001AN,2026-05-13T05:54:56.342016,15.29451113,.00099383,97.3362,196.7901,175.8672,184.2653,0,U,55045,999,18691,.23630625E-3,.6682E-4,0
LYNK TOWER 3,2023-001AP,2026-05-12T21:43:29.557344,15.35535594,.0006678,97.3227,193.3475,236.5108,123.5498,0,U,55046,999,18649,.21953E-3,.7506E-4,0
NUSAT-33 (ALBANIA-2),2023-001AQ,2026-05-13T07:02:01.267872,15.27154860,.00075351,97.3096,194.9014,158.1396,202.0166,0,U,55047,999,18698,.20184991E-3,.5305E-4,0
NUSAT-35 (WILLIAMINA),2023-001AR,2026-05-13T06:43:12.030240,15.34199058,.00105834,97.1884,186.9123,217.2944,142.7565,0,U,55048,999,18705,.23644901E-3,.7763E-4,0
ICEYE-X21,2023-001AS,2026-05-13T05:49:55.739136,15.91955649,.0005448,97.3252,216.6011,191.8704,168.2442,0,U,55049,999,18803,.40497426E-3,.132512E-2,.8615516E-5
ION SCV-008,2023-001AU,2026-05-13T05:02:47.335776,15.28128285,.00162223,97.5688,228.9600,133.0237,227.2364,0,U,55051,999,18599,.15291762E-3,.413E-4,0
EOSSAT-1,2023-001AW,2026-05-12T21:48:05.142240,15.33215534,.0008,97.3260,193.8249,235.7769,124.2716,0,U,55053,999,18651,.12959E-3,.4083E-4,0
SKYKRAFT-1A,2023-001AX,2026-05-13T03:03:47.839392,15.28900969,.00080219,97.3247,191.0430,252.5556,107.4808,0,U,55054,999,18636,.13429188E-3,.3698E-4,0
VIGORIDE-5,2023-001AZ,2026-05-13T03:55:33.914208,15.58556885,.00038696,97.3249,203.5714,252.7125,107.3708,0,U,55056,999,18720,.44893771E-3,.34331E-3,0
ION SCV-007,2023-001BD,2026-05-13T02:50:21.582240,14.77519921,.00137948,97.9023,196.8256,89.7663,270.5128,0,U,55060,999,18107,.43081872E-4,.257E-5,0
SKYKRAFT-1C,2023-001BE,2026-05-13T02:19:34.040064,15.24772043,.00087943,97.3219,187.5304,270.1601,89.8629,0,U,55061,999,18613,.83229291E-4,.1993E-4,0
YAM-5,2023-001BV,2026-05-12T21:33:52.032960,15.37804130,.0007759,97.3221,196.0300,226.8848,133.1749,0,U,55076,999,18668,.19069E-3,.7007E-4,0
HUYGENS,2023-001CN,2026-05-13T04:23:18.451680,15.39445068,.00092097,97.3270,200.3525,198.9084,161.1821,0,U,55093,999,18698,.13576241E-3,.5241E-4,0
KUWAITSAT-1,2023-001CY,2026-05-12T23:50:15.428832,15.48083580,.00083781,97.3266,203.2809,192.9715,167.1321,0,U,55103,999,18714,.28746252E-3,.15001E-3,0
SHARJAHSAT-1,2023-001CZ,2026-05-13T06:41:55.473792,15.47762470,.00051373,97.3196,201.5941,213.6121,146.4805,0,U,55104,999,18709,.21395937E-3,.11004E-3,0
AAC-AIS-SAT1,2023-001DC,2026-05-13T05:30:38.779200,14.91796981,.00100749,97.9199,209.8269,43.4894,316.7117,0,U,55107,999,17307,.3126574E-3,.3098E-4,0
ASTROCAST-0402,2023-001DE,2026-05-12T19:33:59.666688,15.27854664,.00048854,97.5559,225.5088,28.7012,331.4495,0,U,55109,999,13913,.20681654E-3,.5549E-4,0
ASTROCAST-0401,2023-001DF,2026-05-13T04:49:13.375200,15.27264269,.00070298,97.5548,225.7719,339.5457,20.5499,0,U,55110,999,18586,.14965574E-3,.3923E-4,0
ASTROCAST-0403,2023-001DG,2026-05-12T18:25:07.042368,15.29986002,.00063607,97.5601,226.2761,103.7433,256.4515,0,U,55111,999,13914,.47486517E-3,.13724E-3,0
ASTROCAST-0404,2023-001DH,2026-05-13T05:34:21.973728,15.27330756,.00082727,97.5649,226.8144,119.9114,240.2948,0,U,55112,999,13919,.21789092E-3,.576E-4,0
SHIJIAN-23 (SJ-23),2023-002A,2026-05-12T19:18:33.278112,1.00089632,.000426,3.6264,78.7434,273.0662,339.6567,0,U,55131,999,1215,0,-.34E-6,0
2023-003C,2023-003C,2026-05-13T06:28:43.966848,15.54087988,.00020858,97.1536,209.8343,224.7657,135.3429,0,U,55135,999,18685,.20689289E-3,.13326E-3,0
2023-003E,2023-003E,2026-05-13T06:55:34.512960,15.53668510,.00030858,97.1451,208.7950,218.2534,141.8502,0,U,55137,999,18684,.23799493E-3,.15116E-3,0
ONEWEB-0532,2023-004A,2026-05-13T00:38:33.073152,13.17649580,.00018023,87.9166,12.8550,94.2062,265.9276,0,U,55140,999,16295,.62029012E-4,.37E-6,0
ONEWEB-0533,2023-004B,2026-05-13T00:10:15.963744,13.12443691,.0001941,87.8976,357.6645,84.2292,275.9058,0,U,55141,999,16344,.96180303E-3,.359E-5,0
