BRO-8                   
1 55011U 23001C   26133.33366126  .00021143  00000+0  42080-3 0  9990
2 55011  97.3243 198.0700 0005021 232.5323 127.5471 15.46936333186819
CONNECTA T1.2           
1 55012U 23001D   26132.97188947  .00025989  00000+0  49490-3 0  9997
2 55012  97.3301 203.1042 0005967 206.5063 153.5883 15.48169758187091
BIRKELAND               
1 55015U 23001G   26133.18277973  .00007848  00000+0  20234-3 0  9991
2 55015  97.3364 201.0774 0005793 218.0785 142.0052 15.39448528186969
LYNK TOWER 4            
1 55034U 23001AB  26133.12866327  .00004153  00000+0  13332-3 0  9990
2 55034  97.3224 192.3938 0006892 236.4037 123.6547 15.32845285186456
SKYKRAFT-1              
1 55041U 23001AJ  26133.27445416  .00027691  00000+0  30079-3 0  9995
2 55041  97.3199 209.1914 0004947 181.5902 178.5342 15.63446083187591
CONTINUUM-1             
1 55045U 23001AN  26133.24648544  .00006682  00000+0  23631-3 0  9996
2 55045  97.3362 196.7901 0009938 175.8672 184.2653 15.29451113186915
LYNK TOWER 3            
1 55046U 23001AP  26132.90520321  .00007506  00000+0  21953-3 0  9992
2 55046  97.3227 193.3475 0006678 236.5108 123.5498 15.35535594186491
NUSAT-33 (ALBANIA-2)    
1 55047U 23001AQ  26133.29307023  .00005305  00000+0  20185-3 0  9999
2 55047  97.3096 194.9014 0007535 158.1396 202.0166 15.27154860186986
NUSAT-35 (WILLIAMINA)   
1 55048U 23001AR  26133.28000035  .00007763  00000+0  23645-3 0  9996
2 55048  97.1884 186.9123 0010583 217.2944 142.7565 15.34199058187053
ICEYE-X21               
1 55049U 23001AS  26133.24300624  .00132512  86155-5  40497-3 0  9996
2 55049  97.3252 216.6011 0005448 191.8704 168.2442 15.91955649188032
ION SCV-008             
1 55051U 23001AU  26133.21027009  .00004130  00000+0  15292-3 0  9997
2 55051  97.5688 228.9600 0016222 133.0237 227.2364 15.28128285185990
EOSSAT-1                
1 55053U 23001AW  26132.90839285  .00004083  00000+0  12959-3 0  9995
2 55053  97.3260 193.8249 0008000 235.7769 124.2716 15.33215534186516
SKYKRAFT-1A             
1 55054U 23001AX  26133.12763703  .00003698  00000+0  13429-3 0  9996
2 55054  97.3247 191.0430 0008021 252.5556 107.4808 15.28900969186363
VIGORIDE-5              
1 55056U 23001AZ  26133.16358697  .00034331  00000+0  44894-3 0  9992
2 55056  97.3249 203.5714 0003869 252.7125 107.3708 15.58556885187209
ION SCV-007             
1 55060U 23001BD  26133.11830535  .00000257  00000+0  43082-4 0  9997
2 55060  97.9023 196.8256 0013794  89.7663 270.5128 14.77519921181076
SKYKRAFT-1C             
1 55061U 23001BE  26133.09692176  .00001993  00000+0  83229-4 0  9997
2 55061  97.3219 187.5304 0008794 270.1601  89.8629 15.24772043186139
YAM-5                   
1 55076U 23001BV  26132.89851890  .00007007  00000+0  19069-3 0  9992
2 55076  97.3221 196.0300 0007759 226.8848 133.1749 15.37804130186683
HUYGENS                 
1 55093U 23001CN  26133.18285245  .00005241  00000+0  13576-3 0  9994
2 55093  97.3270 200.3525 0009209 198.9084 161.1821 15.39445068186985
KUWAITSAT-1             
1 55103U 23001CY  26132.99323413  .00015001  00000+0  28746-3 0  9994
2 55103  97.3266 203.2809 0008378 192.9715 167.1321 15.48083580187147
SHARJAHSAT-1            
1 55104U 23001CZ  26133.27911428  .00011004  00000+0  21396-3 0  9999
2 55104  97.3196 201.5941 0005137 213.6121 146.4805 15.47762470187092
AAC-AIS-SAT1            
1 55107U 23001DC  26133.22961550  .00003098  00000+0  31266-3 0  9999
2 55107  97.9199 209.8269 0010074  43.4894 316.7117 14.91796981173073
ASTROCAST-0402          
1 55109U 23001DE  26132.81527392  .00005549  00000+0  20682-3 0  9990
2 55109  97.5559 225.5088 0004885  28.7012 331.4495 15.27854664139131
ASTROCAST-0401          
1 55110U 23001DF  26133.20084925  .00003923  00000+0  14966-3 0  9998
2 55110  97.5548 225.7719 0007029 339.5457  20.5499 15.27264269185860
ASTROCAST-0403          
1 55111U 23001DG  26132.76744262  .00013724  00000+0  47487-3 0  9990
2 55111  97.5601 226.2761 0006360 103.7433 256.4515 15.29986002139143
ASTROCAST-0404          
1 55112U 23001DH  26133.23219877  .00005760  00000+0  21789-3 0  9991
2 55112  97.5649 226.8144 0008272 119.9114 240.2948 15.27330756139199
SHIJIAN-23 (SJ-23)      
1 55131U 23002A   26132.80455183 -.00000034  00000+0  00000+0 0  9996
2 55131   3.6264  78.7434 0004260 273.0662 339.6567  1.00089632 12156
2023-003C               
1 55135U 23003C   26133.26995332  .00013326  00000+0  20689-3 0  9993
2 55135  97.1536 209.8343 0002085 224.7657 135.3429 15.54087988186859
2023-003E               
1 55137U 23003E   26133.28859390  .00015116  00000+0  23799-3 0  9994
2 55137  97.1451 208.7950 0003085 218.2534 141.8502 15.53668510186840
ONEWEB-0532             
1 55140U 23004A   26133.02677168  .00000037  00000+0  62029-4 0  9998
2 55140  87.9166  12.8550 0001802  94.2062 265.9276 13.17649580162953
ONEWEB-0533             
1 55141U 23004B   26133.00712921  .00000359  00000+0  96180-3 0  9995
2 55141  87.8976 357.6645 0001941  84.2292 275.9058 13.12443691163449
